{
    "links": {
        "self": "http://www.neowsapp.com/rest/v1/neo/3841826?api_key=iIulBulltgU6a56xZRHN4H3l9WmuAYTsLGpBGhQ2"
    },
    "id": "3841826",
    "neo_reference_id": "3841826",
    "name": "(2019 JX4)",
    "designation": "2019 JX4",
    "nasa_jpl_url": "http://ssd.jpl.nasa.gov/sbdb.cgi?sstr=3841826",
    "absolute_magnitude_h": 23.9,
    "estimated_diameter": {
        "kilometers": {
            "estimated_diameter_min": 0.04411182,
            "estimated_diameter_max": 0.0986370281
        },
        "meters": {
            "estimated_diameter_min": 44.1118199997,
            "estimated_diameter_max": 98.6370281305
        },
        "miles": {
            "estimated_diameter_min": 0.0274098057,
            "estimated_diameter_max": 0.0612901888
        },
        "feet": {
            "estimated_diameter_min": 144.7238235278,
            "estimated_diameter_max": 323.6123073718
        }
    },
    "is_potentially_hazardous_asteroid": false,
    "close_approach_data": [
        {
            "close_approach_date": "2019-05-25",
            "close_approach_date_full": "2019-May-25 14:26",
            "epoch_date_close_approach": 1558794360000,
            "relative_velocity": {
                "kilometers_per_second": "4.4337509648",
                "kilometers_per_hour": "15961.5034733506",
                "miles_per_hour": "9917.857533205"
            },
            "miss_distance": {
                "astronomical": "0.2348190645",
                "lunar": "91.3446160905",
                "kilometers": "35128431.884592615",
                "miles": "21827795.404763487"
            },
            "orbiting_body": "Earth"
        }
    ],
    "orbital_data": {
        "orbit_id": "2",
        "orbit_determination_date": "2019-06-03 06:43:29",
        "first_observation_date": "2019-05-07",
        "last_observation_date": "2019-06-03",
        "data_arc_in_days": 27,
        "observations_used": 13,
        "orbit_uncertainty": "8",
        "minimum_orbit_intersection": ".210874",
        "jupiter_tisserand_invariant": "3.200",
        "epoch_osculation": "2458612.5",
        "eccentricity": ".5299713243908031",
        "semi_major_axis": "2.598682687233979",
        "inclination": "1.701797436972811",
        "ascending_node_longitude": "122.0032184239213",
        "orbital_period": "1530.129917002595",
        "perihelion_distance": "1.221455381809136",
        "perihelion_argument": "119.3651132690393",
        "aphelion_distance": "3.975909992658822",
        "perihelion_time": "2458632.231484797384",
        "mean_anomaly": "355.3576918873836",
        "mean_motion": ".2352741397967121",
        "equinox": "J2000",
        "orbit_class": {
            "orbit_class_type": "AMO",
            "orbit_class_description": "Near-Earth asteroid orbits similar to that of 1221 Amor",
            "orbit_class_range": "1.017 AU < q (perihelion) < 1.3 AU"
        }
    },
    "is_sentry_object": false
}